[{"OBJECT_NAME":"ONEWEB-0282","OBJECT_ID":"2021-060AK","EPOCH":"2026-03-09T22:05:22.600608","MEAN_MOTION":13.16593695,"ECCENTRICITY":0.00017526,"INCLINATION":87.9004,"RA_OF_ASC_NODE":248.5252,"ARG_OF_PERICENTER":99.7855,"MEAN_ANOMALY":260.3474,"EPHEMERIS_TYPE":0,"CLASSIFICATION_TYPE":"U","NORAD_CAT_ID":49000,"ELEMENT_SET_NO":999,"REV_AT_EPOCH":22654,"BSTAR":-8.5110765e-5,"MEAN_MOTION_DOT":-2.0e-7,"MEAN_MOTION_DDOT":0},{"OBJECT_NAME":"FENGYUN 1C DEB","OBJECT_ID":"1999-025CJX","EPOCH":"2026-03-06T05:44:50.910432","MEAN_MOTION":13.62260171,"ECCENTRICITY":0.03108978,"INCLINATION":96.1858,"RA_OF_ASC_NODE":69.4741,"ARG_OF_PERICENTER":50.0302,"MEAN_ANOMALY":312.7714,"EPHEMERIS_TYPE":0,"CLASSIFICATION_TYPE":"U","NORAD_CAT_ID":31857,"ELEMENT_SET_NO":999,"REV_AT_EPOCH":62766,"BSTAR":0.0026402974,"MEAN_MOTION_DOT":2.806e-5,"MEAN_MOTION_DDOT":0}]
